0 SL-16 DEB
1 22552U 92093HN  13282.30021368  .00011577  00000-0  31108-2 0  7925
2 22552 071.0776 005.5606 0034935 201.6875 214.6135 14.47834963 77905
0 SL-16 DEB
1 22552U 92093HN  13283.26865762  .00010031  00000-0  26971-2 0  7932
2 22552 071.0775 003.4232 0034835 200.2716 222.2145 14.47850560 78047
0 SL-16 DEB
1 22552U 92093HN  13286.30955370  .00006732  00000-0  18141-2 0  7949
2 22552 071.0786 356.7111 0034624 195.9758 231.7496 14.47891889 78482
0 SL-16 DEB
1 22552U 92093HN  13288.59917193  .00010022  00000-0  26907-2 0  7950
2 22552 071.0780 351.6574 0034383 192.6036 286.0004 14.47931353 78814
0 SL-16 DEB
1 22552U 92093HN  13290.60346983  .00010489  00000-0  28136-2 0  7962
2 22552 071.0776 347.2339 0034177 189.9125 293.0917 14.47963420 79102
0 SL-16 DEB
1 22552U 92093HN  13292.25011025  .00007915  00000-0  21263-2 0  7976
2 22552 071.0775 343.5990 0033921 187.3001 236.5222 14.47991298 79345
0 SL-16 DEB
1 22552U 92093HN  13293.49344044  .00009192  00000-0  24660-2 0  7987
2 22552 071.0770 340.8539 0033807 185.2925 237.7630 14.48008355 79524
0 SL-16 DEB
1 22552U 92093HN  13294.54102719  .00010195  00000-0  27323-2 0  7990
2 22552 071.0771 338.5414 0033692 183.7556 298.5387 14.48023059 79674
